NORAD_CAT_ID,OBJECT_NAME,OBJECT_TYPE,EPOCH,MEAN_MOTION,ECCENTRICITY,INCLINATION,RA_OF_ASC_NODE,ARG_OF_PERICENTER,MEAN_ANOMALY,BSTAR,MEAN_MOTION_DOT,MEAN_MOTION_DDOT,TLE_LINE0,TLE_LINE1,TLE_LINE2,SEMIMAJOR_AXIS,PERIOD,APOGEE,PERIGEE,DECAYED
51751.0,STARLINK-3506,PAYLOAD,2022-03-18 08:00:01,15.73160685,0.0001076,53.2189,17.1331,77.2768,212.1134,0.00038285,0.00053361,0.0,0 STARLINK-3506,1 51751U 22016AP  22077.33334491  .00053361  00000-0  38285-3 0  9995,2 51751  53.2189  17.1331 0001076  77.2768 212.1134 15.73160685  5164,6728.007,91.535,350.596,349.148,0.0
51751.0,STARLINK-3506,PAYLOAD,2022-03-18 14:00:01,15.73185301,0.000102,53.2191,15.8946,90.8599,175.2053,0.00029281,0.00040647,0.0,0 STARLINK-3506,1 51751U 22016AP  22077.58334491  .00040647  00000-0  29281-3 0  9991,2 51751  53.2191  15.8946 0001020  90.8599 175.2053 15.73185301  3716,6727.937,91.534,350.48800000000006,349.116,0.0
51751.0,STARLINK-3506,PAYLOAD,2022-03-18 22:00:00,15.73239796,0.000111,53.2189,14.2455,95.7915,259.1962,-0.00059685,-0.00083695,0.0,0 STARLINK-3506,1 51751U 22016AP  22077.91667824 -.00083695  00000-0 -59685-3 0  9990,2 51751  53.2189  14.2455 0001110  95.7915 259.1962 15.73239796  5257,6727.781999999997,91.531,350.39300000000014,348.9,0.0
51751.0,STARLINK-3506,PAYLOAD,2022-03-19 14:00:01,15.73146737,9.07e-05,53.2174,10.9467,93.7584,79.0266,0.00040551,0.00056544,0.0,0 STARLINK-3506,1 51751U 22016AP  22078.58334491  .00056544  00000-0  40551-3 0  9998,2 51751  53.2174  10.9467 0000907  93.7584  79.0266 15.73146737  5360,6728.047,91.536,350.522,349.302,0.0
51751.0,STARLINK-3506,PAYLOAD,2022-03-19 22:00:01,15.73202496,0.0001013,53.2176,9.2975,94.5201,167.208,0.00014051,0.00019147,0.0,0 STARLINK-3506,1 51751U 22016AP  22078.91668981  .00019147  00000-0  14051-3 0  9993,2 51751  53.2176   9.2975 0001013  94.5201 167.2080 15.73202496  3728,6727.888000000001,91.533,350.435,349.07199999999995,0.0
51751.0,STARLINK-3506,PAYLOAD,2022-03-20 12:00:00,15.73247436,0.000114,53.217,6.4111,93.3234,234.006,-0.00039403,-0.00055665,0.0,0 STARLINK-3506,1 51751U 22016AP  22079.50001157 -.00055665  00000-0 -39403-3 0  9990,2 51751  53.2170   6.4111 0001140  93.3234 234.0060 15.73247436  5509,6727.76,91.53,350.392,348.858,0.0
51751.0,STARLINK-3506,PAYLOAD,2022-03-20 14:00:01,15.73194365,0.0001106,53.217,5.9983,98.058,341.5304,0.00032348,0.0004501,0.0,0 STARLINK-3506,1 51751U 22016AP  22079.58334491  .00045010  00000-0  32348-3 0  9990,2 51751  53.2170   5.9983 0001106  98.0580 341.5304 15.73194365  3682,6727.911,91.534,350.52,349.032,0.0
51751.0,STARLINK-3506,PAYLOAD,2022-03-20 20:00:01,15.73235543,0.0001233,53.2172,4.7612,100.6934,315.5984,0.00036445,0.00050916,0.0,0 STARLINK-3506,1 51751U 22016AP  22079.83334491  .00050916  00000-0  36445-3 0  9991,2 51751  53.2172   4.7612 0001233 100.6934 315.5984 15.73235543  5551,6727.794,91.531,350.48800000000006,348.829,0.0
51751.0,STARLINK-3506,PAYLOAD,2022-03-20 22:00:01,15.73269455,0.0001192,53.2172,4.3494,99.3364,69.259,-0.00010583,-0.00015489,0.0,0 STARLINK-3506,1 51751U 22016AP  22079.91668981 -.00015489  00000-0 -10583-3 0  9997,2 51751  53.2172   4.3494 0001192  99.3364  69.2590 15.73269455  3700,6727.696999999999,91.529,350.36400000000015,348.76,0.0
51751.0,STARLINK-3506,PAYLOAD,2022-03-21 06:00:00,15.73228815,9.9e-05,53.217,2.7014,86.5201,171.0101,-4.0362e-05,-6.287e-05,0.0,0 STARLINK-3506,1 51751U 22016AP  22080.25001157 -.00006287  00000-0 -40362-4 0  9997,2 51751  53.2170   2.7014 0000990  86.5201 171.0101 15.73228815  5629,6727.813,91.532,350.344,349.01199999999994,0.0
51751.0,STARLINK-3506,PAYLOAD,2022-03-21 14:00:01,15.73190094,9.66e-05,53.2173,1.0497,101.6508,244.8429,-0.00042182,-0.00059375,0.0,0 STARLINK-3506,1 51751U 22016AP  22080.58334491 -.00059375  00000-0 -42182-3 0  9990,2 51751  53.2173   1.0497 0000966 101.6508 244.8429 15.73190094  5675,6727.9230000000025,91.534,350.43800000000016,349.13800000000015,0.0
51751.0,STARLINK-3506,PAYLOAD,2022-03-21 22:00:00,15.73159616,9.26e-05,53.2174,359.4009,97.0789,338.3002,8.7485e-05,0.00011654,0.0,0 STARLINK-3506,1 51751U 22016AP  22080.91667824  .00011654  00000-0  87485-4 0  9998,2 51751  53.2174 359.4009 0000926  97.0789 338.3002 15.73159616  3691,6728.01,91.536,350.49800000000016,349.25199999999984,0.0
51751.0,STARLINK-3506,PAYLOAD,2022-03-22 06:00:00,15.73150878,8.57e-05,53.2169,357.7529,84.3578,79.8974,0.00062199,0.00087399,0.0,0 STARLINK-3506,1 51751U 22016AP  22081.25001157  .00087399  00000-0  62199-3 0  9990,2 51751  53.2169 357.7529 0000857  84.3578  79.8974 15.73150878  5789,6728.035,91.536,350.477,349.324,0.0
51751.0,STARLINK-3506,PAYLOAD,2022-03-22 14:00:01,15.73177007,8.46e-05,53.2168,356.1013,102.8539,150.3083,0.0005751,0.0008079,0.0,0 STARLINK-3506,1 51751U 22016AP  22081.58334491  .00080790  00000-0  57510-3 0  9995,2 51751  53.2168 356.1013 0000846 102.8539 150.3083 15.73177007  3709,6727.9609999999975,91.535,350.395,349.25699999999995,0.0
51751.0,STARLINK-3506,PAYLOAD,2022-03-22 20:00:01,15.73256036,9.48e-05,53.217,354.8646,106.3277,123.5324,3.1049e-05,3.75e-05,0.0,0 STARLINK-3506,1 51751U 22016AP  22081.83334491  .00003750  00000-0  31049-4 0  9994,2 51751  53.2170 354.8646 0000948 106.3277 123.5324 15.73256036  5870,6727.735,91.53,350.23800000000006,348.963,0.0
51751.0,STARLINK-3506,PAYLOAD,2022-03-22 22:00:01,15.73287163,9.35e-05,53.2169,354.4526,98.4538,243.7128,-0.00050479,-0.00071128,0.0,0 STARLINK-3506,1 51751U 22016AP  22081.91668981 -.00071128  00000-0 -50479-3 0  9990,2 51751  53.2169 354.4526 0000935  98.4538 243.7128 15.73287163  3700,6727.647,91.528,350.141,348.8830000000001,0.0
51751.0,STARLINK-3506,PAYLOAD,2022-03-23 08:00:01,15.73249633,0.0001168,53.2167,352.3914,90.5826,92.7392,-0.00062155,-0.00087135,0.0,0 STARLINK-3506,1 51751U 22016AP  22082.33334491 -.00087135  00000-0 -62155-3 0  9992,2 51751  53.2167 352.3914 0001168  90.5826  92.7392 15.73249633  5952,6727.754,91.53,350.404,348.833,0.0
51751.0,STARLINK-3506,PAYLOAD,2022-03-23 14:00:01,15.7315693,0.0001209,53.2169,351.1524,100.7569,59.3014,0.00065718,0.0009246,0.0,0 STARLINK-3506,1 51751U 22016AP  22082.58334491  .00092460  00000-0  65718-3 0  9992,2 51751  53.2169 351.1524 0001209 100.7569  59.3014 15.73156930  3698,6728.018,91.536,350.696,349.07,0.0
51751.0,STARLINK-3506,PAYLOAD,2022-03-23 22:00:00,15.73261285,0.0001239,53.2172,349.5041,97.4442,151.5209,-0.0005308,-0.0007465,0.0,0 STARLINK-3506,1 51751U 22016AP  22082.91667824 -.00074650  00000-0 -53080-3 0  9990,2 51751  53.2172 349.5041 0001239  97.4442 151.5209 15.73261285  6045,6727.72,91.53,350.4190000000001,348.75199999999984,0.0
51751.0,STARLINK-3506,PAYLOAD,2022-03-24 14:00:01,15.73163943,0.0001162,53.2167,346.2037,104.647,322.244,0.00054575,0.00076554,0.0,0 STARLINK-3506,1 51751U 22016AP  22083.58334491  .00076554  00000-0  54575-3 0  9998,2 51751  53.2167 346.2037 0001162 104.6470 322.2440 15.73163943  3688,6727.998000000001,91.535,350.645,349.081,0.0
51751.0,STARLINK-3506,PAYLOAD,2022-03-24 22:00:00,15.73249236,0.0001146,53.2168,344.5555,99.4074,56.3893,-0.00038137,-0.00053912,0.0,0 STARLINK-3506,1 51751U 22016AP  22083.91667824 -.00053912  00000-0 -38137-3 0  9995,2 51751  53.2168 344.5555 0001146  99.4074  56.3893 15.73249236  3708,6727.755,91.53,350.391,348.849,0.0
51751.0,STARLINK-3506,PAYLOAD,2022-03-25 00:00:02,15.73252696,0.000111,53.2167,344.1437,96.8454,171.2581,-0.00054225,-0.00076204,0.0,0 STARLINK-3506,1 51751U 22016AP  22084.00002315 -.00076204  00000-0 -54225-3 0  9999,2 51751  53.2167 344.1437 0001110  96.8454 171.2581 15.73252696  6210,6727.745,91.53,350.357,348.86300000000006,0.0
51751.0,STARLINK-3506,PAYLOAD,2022-03-25 12:00:00,15.73208247,0.0001021,53.2172,341.6678,103.2603,118.1737,-0.00028737,-0.00040768,0.0,0 STARLINK-3506,1 51751U 22016AP  22084.50001157 -.00040768  00000-0 -28737-3 0  9992,2 51751  53.2172 341.6678 0001021 103.2603 118.1737 15.73208247  6299,6727.871999999999,91.533,350.4240000000001,349.05,0.0
51751.0,STARLINK-3506,PAYLOAD,2022-03-25 14:00:01,15.73174855,0.0001077,53.217,341.255,105.8923,227.7852,0.00012529,0.0001698,0.0,0 STARLINK-3506,1 51751U 22016AP  22084.58334491  .00016980  00000-0  12529-3 0  9999,2 51751  53.2170 341.2550 0001077 105.8923 227.7852 15.73174855  3699,6727.967,91.535,350.556,349.107,0.0
51751.0,STARLINK-3506,PAYLOAD,2022-03-25 20:00:01,15.73197325,0.0001149,53.2174,340.0187,101.9251,208.4241,6.426399999999999e-05,8.407e-05,0.0,0 STARLINK-3506,1 51751U 22016AP  22084.83334491  .00008407  00000-0  64264-4 0  9996,2 51751  53.2174 340.0187 0001149 101.9251 208.4241 15.73197325  6347,6727.903,91.533,350.541,348.995,0.0
51751.0,STARLINK-3506,PAYLOAD,2022-03-25 22:00:01,15.73215174,0.0001116,53.2176,339.607,96.3733,326.2681,-0.00019631,-0.00028096,0.0,0 STARLINK-3506,1 51751U 22016AP  22084.91668981 -.00028096  00000-0 -19631-3 0  9994,2 51751  53.2176 339.6070 0001116  96.3733 326.2681 15.73215174  3741,6727.852,91.532,350.468,348.966,0.0
51751.0,STARLINK-3506,PAYLOAD,2022-03-26 06:00:00,15.73176713,8.56e-05,53.217,337.958,91.1176,60.3867,-4.155e-05,-6.440000000000001e-05,0.0,0 STARLINK-3506,1 51751U 22016AP  22085.25001157 -.00006440  00000-0 -41550-4 0  9993,2 51751  53.2170 337.9580 0000856  91.1176  60.3867 15.73176713  6410,6727.962,91.535,350.402,349.251,0.0
51751.0,STARLINK-3506,PAYLOAD,2022-03-26 14:00:01,15.73149163,8.27e-05,53.2169,336.3066,111.5532,128.8541,0.0006697,0.00094221,0.0,0 STARLINK-3506,1 51751U 22016AP  22085.58334491  .00094221  00000-0  66970-3 0  9993,2 51751  53.2169 336.3066 0000827 111.5532 128.8541 15.73149163  3674,6728.04,91.536,350.462,349.349,0.0
51751.0,STARLINK-3506,PAYLOAD,2022-03-26 22:00:00,15.73247657,9.09e-05,53.2169,334.6589,98.3054,231.0034,-0.00066578,-0.00093214,0.0,0 STARLINK-3506,1 51751U 22016AP  22085.91667824 -.00093214  00000-0 -66578-3 0  9996,2 51751  53.2169 334.6589 0000909  98.3054 231.0034 15.73247657  6514,6727.759,91.53,350.236,349.01300000000015,0.0
